NORAD_CAT_ID,OBJECT_NAME,OBJECT_TYPE,EPOCH,MEAN_MOTION,ECCENTRICITY,INCLINATION,RA_OF_ASC_NODE,ARG_OF_PERICENTER,MEAN_ANOMALY,BSTAR,MEAN_MOTION_DOT,MEAN_MOTION_DDOT,TLE_LINE0,TLE_LINE1,TLE_LINE2,SEMIMAJOR_AXIS,PERIOD,APOGEE,PERIGEE,DECAYED
54082.0,STARLINK-5210,PAYLOAD,2023-10-31 12:15:12,15.08838601,0.0001411,53.2172,235.8001,81.3272,278.788,0.00029349,4.386e-05,0.0,0 STARLINK-5210,1 54082U 22136AH  23304.51056650  .00004386  00000-0  29349-3 0  9994,2 54082  53.2172 235.8001 0001411  81.3272 278.7880 15.08838601 57608,6917.885,95.438,540.726,538.774,0.0
54082.0,STARLINK-5210,PAYLOAD,2023-10-31 20:12:08,15.08840398,0.0001374,53.2174,234.3138,84.3153,275.7996,0.00029673,4.438e-05,0.0,0 STARLINK-5210,1 54082U 22136AH  23304.84176607  .00004438  00000-0  29673-3 0  9993,2 54082  53.2174 234.3138 0001374  84.3153 275.7996 15.08840398 57177,6917.879,95.438,540.695,538.794,0.0
54082.0,STARLINK-5210,PAYLOAD,2023-11-01 12:05:59,15.08853831,0.0001494,53.2171,231.3377,76.9055,283.2104,0.00056949,8.79e-05,0.0,0 STARLINK-5210,1 54082U 22136AH  23305.50416018  .00008790  00000-0  56949-3 0  9991,2 54082  53.2171 231.3377 0001494  76.9055 283.2104 15.08853831 57279,6917.838,95.437,540.737,538.67,0.0
54082.0,STARLINK-5210,PAYLOAD,2023-11-01 20:02:55,15.08839873,0.0001423,53.2179,229.8542,89.6905,270.425,-1.072e-05,-4.59e-06,0.0,0 STARLINK-5210,1 54082U 22136AH  23305.83536281 -.00000459  00000-0 -10720-4 0  9996,2 54082  53.2179 229.8542 0001423  89.6905 270.4250 15.08839873 57809,6917.881,95.438,540.73,538.761,0.0
54082.0,STARLINK-5210,PAYLOAD,2023-11-02 03:59:50,15.08854523,0.0001811,53.2178,228.3665,85.8359,274.284,0.00057531,8.883e-05,0.0,0 STARLINK-5210,1 54082U 22136AH  23306.16656068  .00008883  00000-0  57531-3 0  9996,2 54082  53.2178 228.3665 0001811  85.8359 274.2840 15.08854523 57851,6917.836,95.437,540.954,538.448,0.0
54082.0,STARLINK-5210,PAYLOAD,2023-11-02 11:56:46,15.08847473,0.0001285,53.217,226.8815,91.8592,268.2547,0.00039167,5.952e-05,0.0,0 STARLINK-5210,1 54082U 22136AH  23306.49776048  .00005952  00000-0  39167-3 0  9992,2 54082  53.2170 226.8815 0001285  91.8592 268.2547 15.08847473 57903,6917.858,95.437,540.611,538.834,0.0
54082.0,STARLINK-5210,PAYLOAD,2023-11-02 23:04:28,15.08849287,0.0001356,53.2161,224.7968,96.8168,263.2978,0.00056784,8.763e-05,0.0,0 STARLINK-5210,1 54082U 22136AH  23306.96144059  .00008763  00000-0  56784-3 0  9992,2 54082  53.2161 224.7968 0001356  96.8168 263.2978 15.08849287 57494,6917.852,95.437,540.655,538.779,0.0
54082.0,STARLINK-5210,PAYLOAD,2023-11-03 11:47:33,15.08838923,0.0001907,53.2166,222.4173,84.4231,275.6979,0.00024048,3.541e-05,0.0,0 STARLINK-5210,1 54082U 22136AH  23307.49136447  .00003541  00000-0  24048-3 0  9990,2 54082  53.2166 222.4173 0001907  84.4231 275.6979 15.08838923 57570,6917.884,95.438,541.068,538.429,0.0
54082.0,STARLINK-5210,PAYLOAD,2023-11-03 18:09:06,15.08842786,0.0002295,53.217,221.231,78.6688,281.4562,0.0002732,4.063e-05,0.0,0 STARLINK-5210,1 54082U 22136AH  23307.75632605  .00004063  00000-0  27320-3 0  9992,2 54082  53.2170 221.2310 0002295  78.6688 281.4562 15.08842786 58090,6917.872,95.437,541.325,538.149,0.0
54082.0,STARLINK-5210,PAYLOAD,2023-11-04 11:38:21,15.08842812,0.0001503,53.2162,217.9568,91.9319,268.1846,0.00061555,9.523e-05,0.0,0 STARLINK-5210,1 54082U 22136AH  23308.48496628  .00009523  00000-0  61555-3 0  9990,2 54082  53.2162 217.9568 0001503  91.9319 268.1846 15.08842812 57724,6917.872,95.437,540.777,538.697,0.0
54082.0,STARLINK-5210,PAYLOAD,2023-11-04 22:46:02,15.0884571,0.0001222,53.2167,215.8755,94.7072,265.4059,0.00046474,7.117e-05,0.0,0 STARLINK-5210,1 54082U 22136AH  23308.94864528  .00007117  00000-0  46474-3 0  9999,2 54082  53.2167 215.8755 0001222  94.7072 265.4059 15.08845710 57792,6917.863,95.437,540.573,538.883,0.0
54082.0,STARLINK-5210,PAYLOAD,2023-11-05 03:32:11,15.08868576,0.0001563,53.2162,214.9816,98.9893,261.1276,0.0012486,0.00019655,0.0,0 STARLINK-5210,1 54082U 22136AH  23309.14736108  .00019655  00000-0  12486-2 0  9999,2 54082  53.2162 214.9816 0001563  98.9893 261.1276 15.08868576 58307,6917.793,95.436,540.739,538.577,0.0
54082.0,STARLINK-5210,PAYLOAD,2023-11-05 11:29:07,15.08855214,0.0001975,53.2166,213.4952,91.2778,268.844,0.00052706,8.114e-05,0.0,0 STARLINK-5210,1 54082U 22136AH  23309.47856289  .00008114  00000-0  52706-3 0  9996,2 54082  53.2166 213.4952 0001975  91.2778 268.8440 15.08855214 58358,6917.834,95.437,541.065,538.333,0.0
54082.0,STARLINK-5210,PAYLOAD,2023-11-05 22:36:48,15.08890919,0.0001674,53.2146,211.4153,90.6261,269.4922,0.0015715,0.00024846,0.0,0 STARLINK-5210,1 54082U 22136AH  23309.94223111  .00024846  00000-0  15715-2 0  9998,2 54082  53.2146 211.4153 0001674  90.6261 269.4922 15.08890919 57940,6917.725,95.434,540.748,538.432,0.0
54082.0,STARLINK-5210,PAYLOAD,2023-11-06 03:22:57,15.08915556,0.0001511,53.2153,210.5221,86.9397,273.1768,0.0023365,0.00037171,0.0,0 STARLINK-5210,1 54082U 22136AH  23310.14093984  .00037171  00000-0  23365-2 0  9990,2 54082  53.2153 210.5221 0001511  86.9397 273.1768 15.08915556 58454,6917.649,95.433,540.56,538.469,0.0
54082.0,STARLINK-5210,PAYLOAD,2023-11-06 22:27:35,15.08792031,0.0001494,53.2163,206.9511,123.6806,236.4328,-0.0023264,-0.00037074,0.0,0 STARLINK-5210,1 54082U 22136AH  23310.93582946 -.00037074  00000-0 -23264-2 0  9990,2 54082  53.2163 206.9511 0001494 123.6806 236.4328 15.08792031 58095,6918.027,95.441,540.926,538.858,0.0
54082.0,STARLINK-5210,PAYLOAD,2023-11-07 03:13:46,15.08786267,0.0001439,53.217,206.0605,118.5785,241.5352,0.0005136,7.884e-05,0.0,0 STARLINK-5210,1 54082U 22136AH  23311.13456673  .00007884  00000-0  51360-3 0  9993,2 54082  53.2170 206.0605 0001439 118.5785 241.5352 15.08786267 58601,6918.045,95.441,540.905,538.914,0.0
54082.0,STARLINK-5210,PAYLOAD,2023-11-07 09:35:19,15.0880778,0.0001382,53.2168,204.8721,100.7499,259.3648,0.0019629,0.00031062,0.0,0 STARLINK-5210,1 54082U 22136AH  23311.39953102  .00031062  00000-0  19629-2 0  9996,2 54082  53.2168 204.8721 0001382 100.7499 259.3648 15.08807780 58648,6917.979,95.44,540.8,538.888,0.0
54082.0,STARLINK-5210,PAYLOAD,2023-11-08 03:04:33,15.08876008,0.000153,53.216,201.6029,112.1017,248.0138,0.0026254,0.00041785,0.0,0 STARLINK-5210,1 54082U 22136AH  23312.12816774  .00041785  00000-0  26254-2 0  9996,2 54082  53.2160 201.6029 0001530 112.1017 248.0138 15.08876008 58754,6917.77,95.435,540.694,538.577,0.0
54082.0,STARLINK-5210,PAYLOAD,2023-11-08 22:09:11,15.0885457,0.0001246,53.2165,198.0346,98.7845,261.3288,0.0015699,0.00024795,0.0,0 STARLINK-5210,1 54082U 22136AH  23312.92305056  .00024795  00000-0  15699-2 0  9993,2 54082  53.2165 198.0346 0001246  98.7845 261.3288 15.08854570 58396,6917.836,95.437,540.563,538.839,0.0
54082.0,STARLINK-5210,PAYLOAD,2023-11-09 21:59:58,15.08853697,0.0003094,53.2158,193.5738,156.5842,203.5292,0.0012757,0.00020082,0.0,0 STARLINK-5210,1 54082U 22136AH  23313.91664802  .00020082  00000-0  12757-2 0  9997,2 54082  53.2158 193.5738 0003094 156.5842 203.5292 15.08853697 58545,6917.839,95.437,541.844,537.563,0.0
54082.0,STARLINK-5210,PAYLOAD,2023-11-10 01:10:45,15.08845974,0.000136,53.2157,192.9845,99.1512,260.9634,0.00068063,0.00010563,0.0,0 STARLINK-5210,1 54082U 22136AH  23314.04913414  .00010563  00000-0  68063-3 0  9993,2 54082  53.2157 192.9845 0001360  99.1512 260.9634 15.08845974 59048,6917.862,95.437,540.668,538.786,0.0
54082.0,STARLINK-5210,PAYLOAD,2023-11-10 09:07:41,15.08839296,0.0001634,53.2155,191.4922,95.6571,264.4608,0.00042288,6.448e-05,0.0,0 STARLINK-5210,1 54082U 22136AH  23314.38033619  .00006448  00000-0  42288-3 0  9998,2 54082  53.2155 191.4922 0001634  95.6571 264.4608 15.08839296 59091,6917.883,95.438,540.878,538.617,0.0
54082.0,STARLINK-5210,PAYLOAD,2023-11-10 20:15:23,15.08843583,0.0001756,53.216,189.4092,89.2811,270.8382,0.00069529,0.00010796,0.0,0 STARLINK-5210,1 54082U 22136AH  23314.84401624  .00010796  00000-0  69529-3 0  9992,2 54082  53.2160 189.4092 0001756  89.2811 270.8382 15.08843583 58681,6917.869,95.437,540.949,538.52,0.0
54082.0,STARLINK-5210,PAYLOAD,2023-11-11 08:58:27,15.08847243,0.0001509,53.2146,187.0338,85.8229,274.2935,0.00037063,5.617e-05,0.0,0 STARLINK-5210,1 54082U 22136AH  23315.37393488  .00005617  00000-0  37063-3 0  9993,2 54082  53.2146 187.0338 0001509  85.8229 274.2935 15.08847243 58761,6917.858,95.437,540.767,538.679,0.0
54082.0,STARLINK-5210,PAYLOAD,2023-11-11 20:06:09,15.08842844,0.000151,53.2152,184.9502,95.0596,265.0568,0.0001876,2.699e-05,0.0,0 STARLINK-5210,1 54082U 22136AH  23315.83761565  .00002699  00000-0  18760-3 0  9999,2 54082  53.2152 184.9502 0001510  95.0596 265.0568 15.08842844 59313,6917.872,95.437,540.781,538.692,0.0
54082.0,STARLINK-5210,PAYLOAD,2023-11-11 21:41:33,15.08844131,0.0001469,53.2151,184.6525,97.6395,262.4764,0.00016328,2.312e-05,0.0,0 STARLINK-5210,1 54082U 22136AH  23315.90385439  .00002312  00000-0  16328-3 0  9999,2 54082  53.2151 184.6525 0001469  97.6395 262.4764 15.08844131 58849,6917.868,95.437,540.749,538.717,0.0
54082.0,STARLINK-5210,PAYLOAD,2023-11-12 08:49:15,15.08841741,0.0001416,53.2139,182.5703,97.1446,262.9707,0.00013954,1.934e-05,0.0,0 STARLINK-5210,1 54082U 22136AH  23316.36753671  .00001934  00000-0  13954-3 0  9998,2 54082  53.2139 182.5703 0001416  97.1446 262.9707 15.08841741 58918,6917.875,95.437,540.72,538.76,0.0
54082.0,STARLINK-5210,PAYLOAD,2023-11-12 18:21:34,15.0884119,0.0001601,53.2154,180.7853,93.319,266.7986,0.00012135,1.644e-05,0.0,0 STARLINK-5210,1 54082U 22136AH  23316.76497745  .00001644  00000-0  12135-3 0  9997,2 54082  53.2154 180.7853 0001601  93.3190 266.7986 15.08841190 59450,6917.877,95.437,540.849,538.634,0.0
54082.0,STARLINK-5210,PAYLOAD,2023-11-12 21:32:20,15.08842821,0.0001573,53.2155,180.1911,95.4663,264.6508,0.00013137,1.804e-05,0.0,0 STARLINK-5210,1 54082U 22136AH  23316.89745713  .00001804  00000-0  13137-3 0  9993,2 54082  53.2155 180.1911 0001573  95.4663 264.6508 15.08842821 58993,6917.872,95.437,540.825,538.649,0.0
